[{"OBJECT_NAME":"NETSAT-3","OBJECT_ID":"2020-068V","EPOCH":"2026-04-03T23:51:41.370048","MEAN_MOTION":15.40166355,"ECCENTRICITY":0.00037878,"INCLINATION":97.8677,"RA_OF_ASC_NODE":94.7312,"ARG_OF_PERICENTER":225.7962,"MEAN_ANOMALY":134.2972,"EPHEMERIS_TYPE":0,"CLASSIFICATION_TYPE":"U","NORAD_CAT_ID":46505,"ELEMENT_SET_NO":999,"REV_AT_EPOCH":30425,"BSTAR":0.00084090881,"MEAN_MOTION_DOT":0.00033758,"MEAN_MOTION_DDOT":0},{"OBJECT_NAME":"NETSAT-1","OBJECT_ID":"2020-068W","EPOCH":"2026-04-03T22:55:14.780352","MEAN_MOTION":15.32881613,"ECCENTRICITY":0.00031599,"INCLINATION":97.8752,"RA_OF_ASC_NODE":89.857,"ARG_OF_PERICENTER":263.0775,"MEAN_ANOMALY":97.0107,"EPHEMERIS_TYPE":0,"CLASSIFICATION_TYPE":"U","NORAD_CAT_ID":46506,"ELEMENT_SET_NO":999,"REV_AT_EPOCH":30392,"BSTAR":0.00079733743,"MEAN_MOTION_DOT":0.00025297,"MEAN_MOTION_DDOT":0},{"OBJECT_NAME":"NETSAT-2","OBJECT_ID":"2020-068X","EPOCH":"2026-04-03T21:56:05.369856","MEAN_MOTION":15.42910808,"ECCENTRICITY":0.00020108,"INCLINATION":97.8646,"RA_OF_ASC_NODE":95.9898,"ARG_OF_PERICENTER":236.1467,"MEAN_ANOMALY":123.9588,"EPHEMERIS_TYPE":0,"CLASSIFICATION_TYPE":"U","NORAD_CAT_ID":46507,"ELEMENT_SET_NO":999,"REV_AT_EPOCH":30427,"BSTAR":0.0008724891,"MEAN_MOTION_DOT":0.00038386,"MEAN_MOTION_DDOT":0},{"OBJECT_NAME":"GREENCUBE (IO-117)","OBJECT_ID":"2022-080E","EPOCH":"2026-03-31T23:43:38.390592","MEAN_MOTION":6.4258319,"ECCENTRICITY":0.00089758,"INCLINATION":70.1536,"RA_OF_ASC_NODE":325.1039,"ARG_OF_PERICENTER":306.3934,"MEAN_ANOMALY":53.5898,"EPHEMERIS_TYPE":0,"CLASSIFICATION_TYPE":"U","NORAD_CAT_ID":53109,"ELEMENT_SET_NO":999,"REV_AT_EPOCH":8710,"BSTAR":0,"MEAN_MOTION_DOT":-3.0e-8,"MEAN_MOTION_DDOT":0},{"OBJECT_NAME":"SITRO-AIS 5 (KATYS)","OBJECT_ID":"2023-091L","EPOCH":"2026-04-04T05:30:43.426656","MEAN_MOTION":15.27825641,"ECCENTRICITY":0.0011522,"INCLINATION":97.5124,"RA_OF_ASC_NODE":157.4969,"ARG_OF_PERICENTER":11.872,"MEAN_ANOMALY":348.2789,"EPHEMERIS_TYPE":0,"CLASSIFICATION_TYPE":"U","NORAD_CAT_ID":57176,"ELEMENT_SET_NO":999,"REV_AT_EPOCH":15304,"BSTAR":0.00082595813,"MEAN_MOTION_DOT":0.00022453,"MEAN_MOTION_DDOT":0},{"OBJECT_NAME":"SITRO-AIS 6 (CHIRKIN)","OBJECT_ID":"2023-091AC","EPOCH":"2026-04-04T05:52:54.920640","MEAN_MOTION":15.24828022,"ECCENTRICITY":0.00123657,"INCLINATION":97.5131,"RA_OF_ASC_NODE":156.9994,"ARG_OF_PERICENTER":14.9617,"MEAN_ANOMALY":345.1983,"EPHEMERIS_TYPE":0,"CLASSIFICATION_TYPE":"U","NORAD_CAT_ID":57192,"ELEMENT_SET_NO":999,"REV_AT_EPOCH":15301,"BSTAR":0.00051602648,"MEAN_MOTION_DOT":0.00012774,"MEAN_MOTION_DDOT":0},{"OBJECT_NAME":"SITRO-AIS 8 (ANOKHIN)","OBJECT_ID":"2023-091AD","EPOCH":"2026-04-04T05:43:03.034848","MEAN_MOTION":15.30223738,"ECCENTRICITY":0.00105558,"INCLINATION":97.5118,"RA_OF_ASC_NODE":158.8114,"ARG_OF_PERICENTER":8.9604,"MEAN_ANOMALY":351.1822,"EPHEMERIS_TYPE":0,"CLASSIFICATION_TYPE":"U","NORAD_CAT_ID":57193,"ELEMENT_SET_NO":999,"REV_AT_EPOCH":15313,"BSTAR":0.00083241293,"MEAN_MOTION_DOT":0.00024354,"MEAN_MOTION_DDOT":0},{"OBJECT_NAME":"SITRO-AIS 7 (FARTUSHNIY)","OBJECT_ID":"2023-091AE","EPOCH":"2026-04-04T05:36:59.391072","MEAN_MOTION":15.24554274,"ECCENTRICITY":0.00122976,"INCLINATION":97.5129,"RA_OF_ASC_NODE":156.8485,"ARG_OF_PERICENTER":16.1329,"MEAN_ANOMALY":344.0298,"EPHEMERIS_TYPE":0,"CLASSIFICATION_TYPE":"U","NORAD_CAT_ID":57194,"ELEMENT_SET_NO":999,"REV_AT_EPOCH":15300,"BSTAR":0.00048663728,"MEAN_MOTION_DOT":0.00011943,"MEAN_MOTION_DDOT":0},{"OBJECT_NAME":"SITRO-AIS 10 (BURDAEV)","OBJECT_ID":"2023-091AK","EPOCH":"2026-04-04T05:40:26.891040","MEAN_MOTION":15.35934628,"ECCENTRICITY":0.00060066,"INCLINATION":97.5134,"RA_OF_ASC_NODE":163.1503,"ARG_OF_PERICENTER":347.7993,"MEAN_ANOMALY":12.3104,"EPHEMERIS_TYPE":0,"CLASSIFICATION_TYPE":"U","NORAD_CAT_ID":57199,"ELEMENT_SET_NO":999,"REV_AT_EPOCH":15340,"BSTAR":0.0010302968,"MEAN_MOTION_DOT":0.00036102,"MEAN_MOTION_DDOT":0},{"OBJECT_NAME":"SITRO-AIS 9 (SHCHUKIN)","OBJECT_ID":"2023-091AM","EPOCH":"2026-04-04T05:47:13.314912","MEAN_MOTION":15.35518961,"ECCENTRICITY":0.00062551,"INCLINATION":97.5133,"RA_OF_ASC_NODE":162.9386,"ARG_OF_PERICENTER":347.8596,"MEAN_ANOMALY":12.2496,"EPHEMERIS_TYPE":0,"CLASSIFICATION_TYPE":"U","NORAD_CAT_ID":57201,"ELEMENT_SET_NO":999,"REV_AT_EPOCH":15339,"BSTAR":0.00094720525,"MEAN_MOTION_DOT":0.00032733,"MEAN_MOTION_DDOT":0},{"OBJECT_NAME":"SITRO-AIS 12 (SMIRENNIY)","OBJECT_ID":"2023-091AQ","EPOCH":"2026-04-04T05:53:09.201696","MEAN_MOTION":15.35783811,"ECCENTRICITY":0.00057546,"INCLINATION":97.5145,"RA_OF_ASC_NODE":163.3654,"ARG_OF_PERICENTER":341.4992,"MEAN_ANOMALY":18.6041,"EPHEMERIS_TYPE":0,"CLASSIFICATION_TYPE":"U","NORAD_CAT_ID":57204,"ELEMENT_SET_NO":999,"REV_AT_EPOCH":15341,"BSTAR":0.00098484558,"MEAN_MOTION_DOT":0.0003433,"MEAN_MOTION_DDOT":0},{"OBJECT_NAME":"SITRO-AIS 11 (SHEFFER)","OBJECT_ID":"2023-091AU","EPOCH":"2026-04-04T06:39:48.728448","MEAN_MOTION":15.36157544,"ECCENTRICITY":0.00057081,"INCLINATION":97.5143,"RA_OF_ASC_NODE":163.6021,"ARG_OF_PERICENTER":340.0957,"MEAN_ANOMALY":20.0063,"EPHEMERIS_TYPE":0,"CLASSIFICATION_TYPE":"U","NORAD_CAT_ID":57208,"ELEMENT_SET_NO":999,"REV_AT_EPOCH":15343,"BSTAR":0.0010274983,"MEAN_MOTION_DOT":0.0003626,"MEAN_MOTION_DDOT":0},{"OBJECT_NAME":"SITRO-AIS 25","OBJECT_ID":"2024-039R","EPOCH":"2026-04-04T06:14:29.216832","MEAN_MOTION":14.92890797,"ECCENTRICITY":0.01448274,"INCLINATION":95.3928,"RA_OF_ASC_NODE":184.3078,"ARG_OF_PERICENTER":225.8668,"MEAN_ANOMALY":133.0573,"EPHEMERIS_TYPE":0,"CLASSIFICATION_TYPE":"U","NORAD_CAT_ID":59066,"ELEMENT_SET_NO":999,"REV_AT_EPOCH":11369,"BSTAR":0.00080202037,"MEAN_MOTION_DOT":0.00010179,"MEAN_MOTION_DDOT":0},{"OBJECT_NAME":"SITRO-AIS 26","OBJECT_ID":"2024-039S","EPOCH":"2026-04-04T06:02:25.455264","MEAN_MOTION":14.92698126,"ECCENTRICITY":0.0145192,"INCLINATION":95.3926,"RA_OF_ASC_NODE":184.2145,"ARG_OF_PERICENTER":226.4205,"MEAN_ANOMALY":132.4895,"EPHEMERIS_TYPE":0,"CLASSIFICATION_TYPE":"U","NORAD_CAT_ID":59067,"ELEMENT_SET_NO":999,"REV_AT_EPOCH":11368,"BSTAR":0.00077072128,"MEAN_MOTION_DOT":9.738e-5,"MEAN_MOTION_DDOT":0},{"OBJECT_NAME":"SITRO-AIS 27","OBJECT_ID":"2024-039T","EPOCH":"2026-04-04T07:25:18.717024","MEAN_MOTION":14.93099805,"ECCENTRICITY":0.01443893,"INCLINATION":95.3927,"RA_OF_ASC_NODE":184.4925,"ARG_OF_PERICENTER":225.0208,"MEAN_ANOMALY":133.9242,"EPHEMERIS_TYPE":0,"CLASSIFICATION_TYPE":"U","NORAD_CAT_ID":59068,"ELEMENT_SET_NO":999,"REV_AT_EPOCH":11371,"BSTAR":0.00071453716,"MEAN_MOTION_DOT":9.105e-5,"MEAN_MOTION_DDOT":0},{"OBJECT_NAME":"SITRO-AIS 28","OBJECT_ID":"2024-039U","EPOCH":"2026-04-04T06:55:18.060672","MEAN_MOTION":14.93137895,"ECCENTRICITY":0.01441907,"INCLINATION":95.3934,"RA_OF_ASC_NODE":184.5213,"ARG_OF_PERICENTER":224.9399,"MEAN_ANOMALY":134.0084,"EPHEMERIS_TYPE":0,"CLASSIFICATION_TYPE":"U","NORAD_CAT_ID":59071,"ELEMENT_SET_NO":999,"REV_AT_EPOCH":11371,"BSTAR":0.00069531185,"MEAN_MOTION_DOT":8.863e-5,"MEAN_MOTION_DDOT":0}]
