NETSAT-3                
1 46505U 20068V   26093.99422882  .00033758  00000+0  84091-3 0  9990
2 46505  97.8677  94.7312 0003787 225.7962 134.2972 15.40166355304258
NETSAT-1                
1 46506U 20068W   26093.95503218  .00025297  00000+0  79734-3 0  9997
2 46506  97.8752  89.8570 0003159 263.0775  97.0107 15.32881613303925
NETSAT-2                
1 46507U 20068X   26093.91395104  .00038386  00000+0  87249-3 0  9990
2 46507  97.8646  95.9898 0002010 236.1467 123.9588 15.42910808304274
GREENCUBE (IO-117)      
1 53109U 22080E   26090.98863878 -.00000003  00000+0  00000+0 0  9996
2 53109  70.1536 325.1039 0008975 306.3934  53.5898  6.42583190 87104
SITRO-AIS 5 (KATYS)     
1 57176U 23091L   26094.22966929  .00022453  00000+0  82596-3 0  9995
2 57176  97.5124 157.4969 0011522  11.8720 348.2789 15.27825641153042
SITRO-AIS 6 (CHIRKIN)   
1 57192U 23091AC  26094.24508010  .00012774  00000+0  51603-3 0  9998
2 57192  97.5131 156.9994 0012365  14.9617 345.1983 15.24828022153017
SITRO-AIS 8 (ANOKHIN)   
1 57193U 23091AD  26094.23822957  .00024354  00000+0  83241-3 0  9997
2 57193  97.5118 158.8114 0010555   8.9604 351.1822 15.30223738153138
SITRO-AIS 7 (FARTUSHNIY)
1 57194U 23091AE  26094.23402073  .00011943  00000+0  48664-3 0  9991
2 57194  97.5129 156.8485 0012297  16.1329 344.0298 15.24554274153009
SITRO-AIS 10 (BURDAEV)  
1 57199U 23091AK  26094.23642235  .00036102  00000+0  10303-2 0  9994
2 57199  97.5134 163.1503 0006006 347.7993  12.3104 15.35934628153405
SITRO-AIS 9 (SHCHUKIN)  
1 57201U 23091AM  26094.24112633  .00032733  00000+0  94721-3 0  9996
2 57201  97.5133 162.9386 0006255 347.8596  12.2496 15.35518961153399
SITRO-AIS 12 (SMIRENNIY)
1 57204U 23091AQ  26094.24524539  .00034330  00000+0  98485-3 0  9997
2 57204  97.5145 163.3654 0005754 341.4992  18.6041 15.35783811153418
SITRO-AIS 11 (SHEFFER)  
1 57208U 23091AU  26094.27764732  .00036260  00000+0  10275-2 0  9999
2 57208  97.5143 163.6021 0005708 340.0957  20.0063 15.36157544153438
SITRO-AIS 25            
1 59066U 24039R   26094.26006038  .00010179  00000+0  80202-3 0  9992
2 59066  95.3928 184.3078 0144827 225.8668 133.0573 14.92890797113696
SITRO-AIS 26            
1 59067U 24039S   26094.25168351  .00009738  00000+0  77072-3 0  9999
2 59067  95.3926 184.2145 0145192 226.4205 132.4895 14.92698126113680
SITRO-AIS 27            
1 59068U 24039T   26094.30924441  .00009105  00000+0  71454-3 0  9992
2 59068  95.3927 184.4925 0144389 225.0208 133.9242 14.93099805113711
SITRO-AIS 28            
1 59071U 24039U   26094.28840348  .00008863  00000+0  69531-3 0  9999
2 59071  95.3934 184.5213 0144190 224.9399 134.0084 14.93137895113711
